[{"OBJECT_NAME":"STARLINK-35882","OBJECT_ID":"2025-298P","EPOCH":"2026-03-09T23:03:56.894688","MEAN_MOTION":14.98333879,"ECCENTRICITY":0.00031237,"INCLINATION":70.0009,"RA_OF_ASC_NODE":13.9447,"ARG_OF_PERICENTER":267.6345,"MEAN_ANOMALY":92.4456,"EPHEMERIS_TYPE":0,"CLASSIFICATION_TYPE":"U","NORAD_CAT_ID":67088,"ELEMENT_SET_NO":999,"REV_AT_EPOCH":1325,"BSTAR":0.00038624449,"MEAN_MOTION_DOT":4.519e-5,"MEAN_MOTION_DDOT":0},{"OBJECT_NAME":"FENGYUN 1C DEB","OBJECT_ID":"1999-025CGF","EPOCH":"2026-03-09T22:03:04.747680","MEAN_MOTION":14.70112354,"ECCENTRICITY":0.01494246,"INCLINATION":99.2965,"RA_OF_ASC_NODE":238.5623,"ARG_OF_PERICENTER":145.3252,"MEAN_ANOMALY":215.7803,"EPHEMERIS_TYPE":0,"CLASSIFICATION_TYPE":"U","NORAD_CAT_ID":31780,"ELEMENT_SET_NO":999,"REV_AT_EPOCH":99778,"BSTAR":0.00059016291,"MEAN_MOTION_DOT":4.146e-5,"MEAN_MOTION_DDOT":0}]
